ALOS (DAICHI)           
1 28931U 06002A   24294.85385622  .00006825  00000+0  12272-2 0  9997
2 28931  98.0522 245.4012 0002722  87.2684 272.8831 14.66938611999392
